BEESAT-8                
1 48085U 21022AP  24206.53704903  .00036448  00000+0  10660-2 0  9996
2 48085  97.4738 109.0592 0010445   7.1272 353.0118 15.35124943183600
LEDSAT                  
1 49069U 21073D   24206.24737645  .00024223  00000+0  92991-3 0  9998
2 49069  97.4351 277.1616 0019653 150.9445 209.2892 15.26276034162109
ROBUSTA-1F (MTCUBE 2)   
1 53109U 22080E   24204.89085050 -.00000003  00000+0  00000+0 0  9999
2 53109  70.1191 179.7071 0007674  80.0928 280.0597  6.42584447 47457
SITRO-AIS 5 (KATYS)     
1 57176U 23091L   24206.49495507  .00011538  00000+0  72645-3 0  9992
2 57176  97.6096 258.3698 0016889 359.0842   1.0353 15.09222314 59127
SITRO-AIS 6 (CHIRKIN)   
1 57192U 23091AC  24206.41235518  .00011191  00000+0  70371-3 0  9995
2 57192  97.6098 258.3151 0016652 359.8766   0.2455 15.09281225 59111
SITRO-AIS 8 (ANOKHIN)   
1 57193U 23091AD  24206.50442108  .00011977  00000+0  74529-3 0  9992
2 57193  97.6087 258.4915 0016404 359.8228   0.2992 15.09647956 59132
SITRO-AIS 7 (FARTUSHNIY)
1 57194U 23091AE  24206.48480061  .00010817  00000+0  68124-3 0  9996
2 57194  97.6096 258.3656 0016594   0.0644   0.0583 15.09233602 59123
SITRO-AIS 10 (BURDAEV)  
1 57199U 23091AK  24206.49567454  .00012488  00000+0  73916-3 0  9995
2 57199  97.6108 259.4966 0011304 349.1900  10.9086 15.11518503 59198
SITRO-AIS 9 (SHCHUKIN)  
1 57201U 23091AM  24206.49441924  .00012581  00000+0  74510-3 0  9997
2 57201  97.6104 259.4729 0011257 349.1487  10.9498 15.11497482 59191
SITRO-AIS 12 (SMIRENNIY)
1 57204U 23091AQ  24206.51837227  .00011585  00000+0  68291-3 0  9990
2 57204  97.6108 259.6429 0011018 342.9175  17.1683 15.11689629 59200
SITRO-AIS 11 (SHEFFER)  
1 57208U 23091AU  24206.43577022  .00013465  00000+0  79094-3 0  9991
2 57208  97.6107 259.5868 0010909 343.2934  16.7935 15.11780314 59190
ROBUSTA-1E (ENSO)       
1 58470U 23185J   24206.49737105  .00022108  00000+0  89383-3 0  9999
2 58470  97.4239 272.8557 0013428 144.9005 215.3120 15.24661701 35822
SITRO-AIS 29            
1 59052U 24039B   24206.53565058  .00031230  00000+0  10774-2 0  9999
2 59052  97.3936 168.2819 0019964  87.6296 272.7230 15.29727995 22308
SITRO-AIS 30            
1 59053U 24039C   24206.53668081  .00031042  00000+0  10734-2 0  9997
2 59053  97.3934 168.2759 0020085  88.2315 272.1226 15.29651604 22295
SITRO-AIS 31            
1 59054U 24039D   24206.52666245  .00031307  00000+0  10777-2 0  9998
2 59054  97.3934 168.2902 0019965  88.1729 272.1798 15.29799209 22310
SITRO-AIS 33            
1 59055U 24039E   24206.51536102  .00030452  00000+0  10440-2 0  9993
2 59055  97.3939 168.3111 0019694  88.8487 271.5010 15.29942570 22306
SITRO-AIS 35            
1 59056U 24039F   24206.51128547  .00031329  00000+0  10732-2 0  9992
2 59056  97.3937 168.3134 0019507  89.0539 271.2937 15.29966409 22306
SITRO-AIS 32            
1 59057U 24039G   24206.52060157  .00030536  00000+0  10508-2 0  9996
2 59057  97.3939 168.3032 0019553  89.1434 271.2047 15.29822705 22304
SITRO-AIS 34            
1 59058U 24039H   24206.51580368  .00031455  00000+0  10796-2 0  9997
2 59058  97.3939 168.3119 0019708  89.0540 271.2958 15.29899346 22306
SITRO-AIS 36            
1 59059U 24039J   24206.50537842  .00030304  00000+0  10365-2 0  9990
2 59059  97.3938 168.3217 0019326  89.2116 271.1339 15.30026399 22306
SITRO-AIS 49            
1 59060U 24039K   24206.50637166  .00031263  00000+0  10708-2 0  9998
2 59060  97.3939 168.3202 0019345  88.7527 271.5929 15.29974421 22309
SITRO-AIS 50            
1 59061U 24039L   24206.49411760  .00030144  00000+0  10270-2 0  9998
2 59061  97.3937 168.3352 0019256  89.0016 271.3430 15.30155382 22306
SITRO-AIS 51            
1 59062U 24039M   24206.49396372  .00030760  00000+0  10481-2 0  9998
2 59062  97.3937 168.3361 0019250  88.8256 271.5190 15.30148624 22300
SITRO-AIS 52            
1 59063U 24039N   24206.48578220  .00030767  00000+0  10446-2 0  9990
2 59063  97.3938 168.3484 0019154  88.9420 271.4015 15.30266032 22304
SITRO-AIS 25            
1 59066U 24039R   24206.52050631  .00005580  00000+0  53210-3 0  9991
2 59066  95.4013 122.6578 0169239 213.9544 145.0755 14.83303737 21648
SITRO-AIS 26            
1 59067U 24039S   24206.52082829  .00005352  00000+0  51108-3 0  9997
2 59067  95.4013 122.6567 0169158 213.9873 145.0421 14.83269352 21646
SITRO-AIS 27            
1 59068U 24039T   24206.50739473  .00005432  00000+0  51686-3 0  9990
2 59068  95.4015 122.6728 0168746 213.8331 145.2033 14.83445176 21649
SITRO-AIS 28            
1 59071U 24039U   24206.50379740  .00005257  00000+0  50006-3 0  9991
2 59071  95.4016 122.6775 0168595 213.8075 145.2307 14.83487415 21649
GRBBETA                 
1 60237U 24128C   24206.22467545  .00006409  00000+0  57041-3 0  9992
2 60237  61.9948 111.8929 0010346 289.1451  70.8516 14.96961895  2144
OOV-CUBE                
1 60240U 24128F   24205.89576235  .00005157  00000+0  46915-3 0  9992
2 60240  61.9984 113.0802 0010179 271.3113  88.6809 14.96391969  2101
ROBUSTA-3A (MEDITERRAN*)
1 60243U 24128J   24205.90164481  .00009945  00000+0  90026-3 0  9994
2 60243  61.9924 113.0904 0012761 260.9411  99.0233 14.95837747  2100
BEIJING 1               
1 28890U 05043A   24206.51755274  .00000929  00000+0  19299-3 0  9991
2 28890  98.2044 329.1124 0013681 291.3447  68.6294 14.62410615999357
HUANJING 1A (HJ-1A)     
1 33320U 08041A   24206.48238069  .00003099  00000+0  41351-3 0  9995
2 33320  97.6311 211.6576 0018694 247.3980 112.5255 14.80157782855876
HUANJING 1B (HJ-1B)     
1 33321U 08041B   24206.47939023  .00002141  00000+0  28368-3 0  9993
2 33321  97.6259 216.1850 0036693 295.1540  64.5868 14.80411099855897
YAOGAN-4                
1 33446U 08061A   24206.41397652  .00002473  00000+0  33328-3 0  9993
2 33446  97.8790 137.5915 0015540 158.9216 201.2639 14.79973190843064
DEIMOS-1                
1 35681U 09041A   24206.47956537  .00001413  00000+0  22501-3 0  9998
2 35681  97.6815  26.4057 0000087 158.0567 202.0646 14.73420857804803
UK-DMC 2                
1 35683U 09041C   24206.55480414  .00002133  00000+0  33599-3 0  9994
2 35683  97.7864 352.6726 0001292  83.4128 276.7227 14.73458147804514
DMC3-FM1                
1 40715U 15032A   24206.52551173  .00001657  00000+0  20626-3 0  9998
2 40715  97.7451  84.3397 0006134 156.7543 203.3949 14.83790835487110
DMC3-FM2                
1 40716U 15032B   24206.48076831  .00001642  00000+0  20436-3 0  9990
2 40716  97.7504  85.3907 0007878 164.5151 195.6306 14.83797692487103
DMC3-FM3                
1 40717U 15032C   24206.50760855  .00001624  00000+0  20260-3 0  9995
2 40717  97.7553  86.7102 0009392 163.4939 196.6583 14.83705362487117
NOAA 15                 
1 25338U 98030A   24206.40856184  .00000504  00000+0  22647-3 0  9993
2 25338  98.5672 232.7560 0009702 209.9859 150.0767 14.26637765362740
DMSP 5D-3 F16 (USA 172) 
1 28054U 03048A   24206.53100376  .00000296  00000+0  17981-3 0  9998
2 28054  99.0210 213.3497 0006488 314.2321 214.0710 14.14056417 71559
NOAA 18                 
1 28654U 05018A   24206.44806906  .00000448  00000+0  26232-3 0  9993
2 28654  98.8737 283.1031 0013376 320.9040  39.1164 14.13261793988528
METEOSAT-9 (MSG-2)      
1 28912U 05049B   24205.73026184  .00000123  00000+0  00000+0 0  9998
2 28912   7.7673  60.5613 0000933   5.2539 184.6956  1.00268793    54
EWS-G1 (GOES 13)        
1 29155U 06018A   24206.46403735  .00000066  00000+0  00000+0 0  9993
2 29155   2.7203  84.8388 0075324 259.1001 197.5804  0.99040657 66530
DMSP 5D-3 F17 (USA 191) 
1 29522U 06050A   24206.46438060  .00000318  00000+0  18858-3 0  9990
2 29522  98.7439 216.2711 0009125 229.2830 130.7551 14.14507785914463
FENGYUN 3A              
1 32958U 08026A   24206.40109506  .00000399  00000+0  21115-3 0  9995
2 32958  98.6051 152.4481 0008217 332.6710  27.4033 14.19129272837233
NOAA 19                 
1 33591U 09005A   24206.33399325  .00000435  00000+0  25750-3 0  9999
2 33591  99.0451 262.5226 0013854 183.3434 176.7648 14.13056160796876
GOES 14                 
1 35491U 09033A   24205.91431912 -.00000067  00000+0  00000+0 0  9992
2 35491   0.4224 100.6957 0003873  17.0668  45.0430  1.00271621 55166
DMSP 5D-3 F18 (USA 210) 
1 35951U 09057A   24206.48000144  .00000634  00000+0  35539-3 0  9999
2 35951  98.8159 181.3327 0012329  63.3980 296.8455 14.14177655761639
EWS-G2 (GOES 15)        
1 36411U 10008A   24205.09493806  .00000040  00000+0  00000+0 0  9998
2 36411   0.3966  88.9667 0003505 105.1774 202.5104  1.00272109 52679
COMS 1                  
1 36744U 10032A   24205.88977875 -.00000347  00000+0  00000+0 0  9995
2 36744   3.0350  83.9688 0000948  43.0068 263.5791  1.00270854 44133
FENGYUN 3B              
1 37214U 10059A   24206.57366684  .00000261  00000+0  15979-3 0  9993
2 37214  99.0535 235.1851 0021929 349.9021 161.5166 14.14526122709534
SUOMI NPP               
1 37849U 11061A   24206.54062728  .00000238  00000+0  13349-3 0  9993
2 37849  98.7222 143.9606 0001672 114.3150 245.8201 14.19534560660162
FENGYUN 2F              
1 38049U 12002A   24205.60038230 -.00000359  00000+0  00000+0 0  9990
2 38049   5.6811  72.7731 0001982 119.7495  77.4439  1.00263822 45928
METEOSAT-10 (MSG-3)     
1 38552U 12035B   24205.86434652 -.00000008  00000+0  00000+0 0  9992
2 38552   3.0453  61.2390 0000048 330.6960 221.3299  1.00272881 43903
METOP-B                 
1 38771U 12049A   24206.47997407  .00000351  00000+0  18033-3 0  9999
2 38771  98.6259 262.8612 0001133  81.0749 279.0557 14.21455350614849
INSAT-3D                
1 39216U 13038B   24205.88664594 -.00000362  00000+0  00000+0 0  9999
2 39216   0.1266  95.6359 0001240  82.2264 195.7697  1.00562076 40124
